{"type": "FeatureCollection", "features": [ {"type": "Feature", "properties": {"norad_id": 33492, "name": "GOSAT (IBUKI)", "group": "resource", "lat": 57.462056392611935, "lon": -73.8018685226843, "alt_km": 662.8261722672542, "timestamp": "2025-12-10T16:57:11.291409+00:00", "meta": {"OBJECT_NAME": "GOSAT (IBUKI)", "OBJECT_ID": "2009-002A", "EPOCH": "2025-12-10T06:34:58.841760", "MEAN_MOTION": 14.6754762, "ECCENTRICITY": 9.44e-05, "INCLINATION": 98.0768, "RA_OF_ASC_NODE": 92.9119, "ARG_OF_PERICENTER": 89.0594, "MEAN_ANOMALY": 271.0719, "EPHEMERIS_TYPE": 0, "CLASSIFICATION_TYPE": "U", "NORAD_CAT_ID": 33492, "ELEMENT_SET_NO": 999, "REV_AT_EPOCH": 90375, "BSTAR": 0.00027075, "MEAN_MOTION_DOT": 1.488e-05, "MEAN_MOTION_DDOT": 0}, "tle": {"line1": "1 33492U 09002A   25344.27429215  .00001488  00000+0  27075-3 0  9996", "line2": "2 33492  98.0768  92.9119 0000944  89.0594 271.0719 14.67547620903757"}}, "geometry": {"type": "Point", "coordinates": [-73.8018685226843, 57.462056392611935]}}, {"type": "Feature", "properties": {"norad_id": 35681, "name": "DEIMOS-1", "group": "resource", "lat": 34.2049516695993, "lon": -29.308957022001863, "alt_km": 642.2735732780129, "timestamp": "2025-12-10T16:57:11.291420+00:00", "meta": {"OBJECT_NAME": "DEIMOS-1", "OBJECT_ID": "2009-041A", "EPOCH": "2025-12-10T11:24:43.542144", "MEAN_MOTION": 14.74946165, "ECCENTRICITY": 0.0002742, "INCLINATION": 97.7148, "RA_OF_ASC_NODE": 145.1841, "ARG_OF_PERICENTER": 83.0149, "MEAN_ANOMALY": 277.1373, "EPHEMERIS_TYPE": 0, "CLASSIFICATION_TYPE": "U", "NORAD_CAT_ID": 35681, "ELEMENT_SET_NO": 999, "REV_AT_EPOCH": 87906, "BSTAR": 0.00014099, "MEAN_MOTION_DOT": 9e-06, "MEAN_MOTION_DDOT": 0}, "tle": {"line1": "1 35681U 09041A   25344.47550396  .00000900  00000+0  14099-3 0  9998", "line2": "2 35681  97.7148 145.1841 0002742  83.0149 277.1373 14.74946165879062"}}, "geometry": {"type": "Point", "coordinates": [-29.308957022001863, 34.2049516695993]}}, {"type": "Feature", "properties": {"norad_id": 35682, "name": "DUBAISAT-1", "group": "resource", "lat": 79.25399279145228, "lon": 67.76566120232108, "alt_km": 642.6065208987111, "timestamp": "2025-12-10T16:57:11.291430+00:00", "meta": {"OBJECT_NAME": "DUBAISAT-1", "OBJECT_ID": "2009-041B", "EPOCH": "2025-12-10T08:26:11.389344", "MEAN_MOTION": 14.7459351, "ECCENTRICITY": 0.0009733, "INCLINATION": 97.9789, "RA_OF_ASC_NODE": 115.0665, "ARG_OF_PERICENTER": 322.8168, "MEAN_ANOMALY": 37.2365, "EPHEMERIS_TYPE": 0, "CLASSIFICATION_TYPE": "U", "NORAD_CAT_ID": 35682, "ELEMENT_SET_NO": 999, "REV_AT_EPOCH": 87726, "BSTAR": 0.00034556, "MEAN_MOTION_DOT": 2.254e-05, "MEAN_MOTION_DDOT": 0}, "tle": {"line1": "1 35682U 09041B   25344.35152071  .00002254  00000+0  34556-3 0  9998", "line2": "2 35682  97.9789 115.0665 0009733 322.8168  37.2365 14.74593510877266"}}, "geometry": {"type": "Point", "coordinates": [67.76566120232108, 79.25399279145228]}}, {"type": "Feature", "properties": {"norad_id": 35931, "name": "OCEANSAT-2", "group": "resource", "lat": 81.620993878759, "lon": -93.49689721780298, "alt_km": 878.2961273397041, "timestamp": "2025-12-10T16:57:11.291441+00:00", "meta": {"OBJECT_NAME": "OCEANSAT-2", "OBJECT_ID": "2009-051A", "EPOCH": "2025-12-10T11:23:11.248800", "MEAN_MOTION": 13.99625173, "ECCENTRICITY": 0.0016296, "INCLINATION": 98.2224, "RA_OF_ASC_NODE": 345.3049, "ARG_OF_PERICENTER": 50.9846, "MEAN_ANOMALY": 309.2769, "EPHEMERIS_TYPE": 0, "CLASSIFICATION_TYPE": "U", "NORAD_CAT_ID": 35931, "ELEMENT_SET_NO": 999, "REV_AT_EPOCH": 85293, "BSTAR": -7.4143e-05, "MEAN_MOTION_DOT": -1.46e-06, "MEAN_MOTION_DDOT": 0}, "tle": {"line1": "1 35931U 09051A   25344.47443575 -.00000146  00000+0 -74143-4 0  9998", "line2": "2 35931  98.2224 345.3049 0016296  50.9846 309.2769 13.99625173852933"}}, "geometry": {"type": "Point", "coordinates": [-93.49689721780298, 81.620993878759]}}, {"type": "Feature", "properties": {"norad_id": 35946, "name": "WORLDVIEW-2 (WV-2)", "group": "resource", "lat": -67.22298632798339, "lon": 76.62122876368373, "alt_km": 776.4433250425718, "timestamp": "2025-12-10T16:57:11.291451+00:00", "meta": {"OBJECT_NAME": "WORLDVIEW-2 (WV-2)", "OBJECT_ID": "2009-055A", "EPOCH": "2025-12-10T12:15:41.912928", "MEAN_MOTION": 14.3765127, "ECCENTRICITY": 0.0005342, "INCLINATION": 98.4762, "RA_OF_ASC_NODE": 55.626, "ARG_OF_PERICENTER": 72.3233, "MEAN_ANOMALY": 287.8537, "EPHEMERIS_TYPE": 0, "CLASSIFICATION_TYPE": "U", "NORAD_CAT_ID": 35946, "ELEMENT_SET_NO": 999, "REV_AT_EPOCH": 84853, "BSTAR": 0.00011558, "MEAN_MOTION_DOT": 3.04e-06, "MEAN_MOTION_DDOT": 0}, "tle": {"line1": "1 35946U 09055A   25344.51090177  .00000304  00000+0  11558-3 0  9993", "line2": "2 35946  98.4762  55.6260 0005342  72.3233 287.8537 14.37651270848537"}}, "geometry": {"type": "Point", "coordinates": [76.62122876368373, -67.22298632798339]}}, {"type": "Feature", "properties": {"norad_id": 36036, "name": "SMOS", "group": "resource", "lat": -47.670129825675346, "lon": 179.1639016091476, "alt_km": 766.6910703634949, "timestamp": "2025-12-10T16:57:11.291461+00:00", "meta": {"OBJECT_NAME": "SMOS", "OBJECT_ID": "2009-059A", "EPOCH": "2025-12-10T12:10:24.899232", "MEAN_MOTION": 14.39738297, "ECCENTRICITY": 0.0001101, "INCLINATION": 98.4381, "RA_OF_ASC_NODE": 169.5887, "ARG_OF_PERICENTER": 84.6525, "MEAN_ANOMALY": 275.4789, "EPHEMERIS_TYPE": 0, "CLASSIFICATION_TYPE": "U", "NORAD_CAT_ID": 36036, "ELEMENT_SET_NO": 999, "REV_AT_EPOCH": 84630, "BSTAR": 0.00021488, "MEAN_MOTION_DOT": 6.3e-06, "MEAN_MOTION_DDOT": 0}, "tle": {"line1": "1 36036U 09059A   25344.50723263  .00000630  00000+0  21488-3 0  9991", "line2": "2 36036  98.4381 169.5887 0001101  84.6525 275.4789 14.39738297846306"}}, "geometry": {"type": "Point", "coordinates": [179.1639016091476, -47.670129825675346]}}, {"type": "Feature", "properties": {"norad_id": 36110, "name": "YAOGAN-7", "group": "resource", "lat": -38.43653670253311, "lon": 40.03769917893196, "alt_km": 637.1692604427863, "timestamp": "2025-12-10T16:57:11.291471+00:00", "meta": {"OBJECT_NAME": "YAOGAN-7", "OBJECT_ID": "2009-069A", "EPOCH": "2025-12-10T09:27:48.089376", "MEAN_MOTION": 14.77727027, "ECCENTRICITY": 0.0023429, "INCLINATION": 98.0302, "RA_OF_ASC_NODE": 226.1597, "ARG_OF_PERICENTER": 289.2876, "MEAN_ANOMALY": 70.58, "EPHEMERIS_TYPE": 0, "CLASSIFICATION_TYPE": "U", "NORAD_CAT_ID": 36110, "ELEMENT_SET_NO": 999, "REV_AT_EPOCH": 86174, "BSTAR": 0.00015974, "MEAN_MOTION_DOT": 1.097e-05, "MEAN_MOTION_DDOT": 0}, "tle": {"line1": "1 36110U 09069A   25344.39430659  .00001097  00000+0  15974-3 0  9997", "line2": "2 36110  98.0302 226.1597 0023429 289.2876  70.5800 14.77727027861749"}}, "geometry": {"type": "Point", "coordinates": [40.03769917893196, -38.43653670253311]}}, {"type": "Feature", "properties": {"norad_id": 36605, "name": "TANDEM-X", "group": "resource", "lat": 17.64544337880599, "lon": 172.50105093628855, "alt_km": 508.69984148289404, "timestamp": "2025-12-10T16:57:11.291481+00:00", "meta": {"OBJECT_NAME": "TANDEM-X", "OBJECT_ID": "2010-030A", "EPOCH": "2025-12-09T11:47:13.197408", "MEAN_MOTION": 15.19145601, "ECCENTRICITY": 0.0002009, "INCLINATION": 97.445, "RA_OF_ASC_NODE": 348.9195, "ARG_OF_PERICENTER": 85.8365, "MEAN_ANOMALY": 274.3099, "EPHEMERIS_TYPE": 0, "CLASSIFICATION_TYPE": "U", "NORAD_CAT_ID": 36605, "ELEMENT_SET_NO": 999, "REV_AT_EPOCH": 85784, "BSTAR": 0.00012722, "MEAN_MOTION_DOT": 2.605e-05, "MEAN_MOTION_DDOT": 0}, "tle": {"line1": "1 36605U 10030A   25343.49112497  .00002605  00000+0  12722-3 0  9997", "line2": "2 36605  97.4450 348.9195 0002009  85.8365 274.3099 15.19145601857845"}}, "geometry": {"type": "Point", "coordinates": [172.50105093628855, 17.64544337880599]}}, {"type": "Feature", "properties": {"norad_id": 36795, "name": "CARTOSAT-2B", "group": "resource", "lat": 40.253007707506875, "lon": -139.54584545281233, "alt_km": 624.9770304616759, "timestamp": "2025-12-10T16:57:11.291491+00:00", "meta": {"OBJECT_NAME": "CARTOSAT-2B", "OBJECT_ID": "2010-035A", "EPOCH": "2025-12-10T09:49:52.159872", "MEAN_MOTION": 14.78783431, "ECCENTRICITY": 0.0012934, "INCLINATION": 97.785, "RA_OF_ASC_NODE": 33.5156, "ARG_OF_PERICENTER": 84.0805, "MEAN_ANOMALY": 276.188, "EPHEMERIS_TYPE": 0, "CLASSIFICATION_TYPE": "U", "NORAD_CAT_ID": 36795, "ELEMENT_SET_NO": 999, "REV_AT_EPOCH": 83195, "BSTAR": 0.00012691, "MEAN_MOTION_DOT": 8.84e-06, "MEAN_MOTION_DDOT": 0}, "tle": {"line1": "1 36795U 10035A   25344.40963148  .00000884  00000+0  12691-3 0  9993", "line2": "2 36795  97.7850  33.5156 0012934  84.0805 276.1880 14.78783431831959"}}, "geometry": {"type": "Point", "coordinates": [-139.54584545281233, 40.253007707506875]}}, {"type": "Feature", "properties": {"norad_id": 36834, "name": "YAOGAN-10", "group": "resource", "lat": 3.403164133570327, "lon": -174.98415285862987, "alt_km": 617.4986981107695, "timestamp": "2025-12-10T16:57:11.291501+00:00", "meta": {"OBJECT_NAME": "YAOGAN-10", "OBJECT_ID": "2010-038A", "EPOCH": "2025-12-10T13:36:33.386976", "MEAN_MOTION": 14.84595959, "ECCENTRICITY": 0.0001462, "INCLINATION": 97.9141, "RA_OF_ASC_NODE": 4.4036, "ARG_OF_PERICENTER": 82.5988, "MEAN_ANOMALY": 69.6402, "EPHEMERIS_TYPE": 0, "CLASSIFICATION_TYPE": "U", "NORAD_CAT_ID": 36834, "ELEMENT_SET_NO": 999, "REV_AT_EPOCH": 82921, "BSTAR": 0.00060576, "MEAN_MOTION_DOT": 5.064e-05, "MEAN_MOTION_DDOT": 0}, "tle": {"line1": "1 36834U 10038A   25344.56705309  .00005064  00000+0  60576-3 0  9990", "line2": "2 36834  97.9141   4.4036 0001462  82.5988  69.6402 14.84595959829215"}}, "geometry": {"type": "Point", "coordinates": [-174.98415285862987, 3.403164133570327]}}]}